start=new Date('2023-04-23T00:00:00.000Z').valueOf();
sats=[{"MEAN_MOTION":"15.06409769","FILE":"3892285","PERIOD":"95.592","MEAN_MOTION_DOT":"0.00012249","COUNTRY_CODE":"US","EPHEMERIS_TYPE":"0","REV_AT_EPOCH":"15036","REF_FRAME":"TEME","TLE_LINE2":"2 46028  53.0534 168.5280 0001164  92.2281 267.8841 15.06409769150366","GP_ID":"230592162","OBJECT_NAME":"STARLINK-1523","TLE_LINE1":"1 46028U 20055B   23112.84662232  .00012249  00000-0  83958-3 0  9998","SEMIMAJOR_AXIS":"6925.319","ELEMENT_SET_NO":"999","OBJECT_TYPE":"PAYLOAD","LAUNCH_DATE":"2020-08-07","CENTER_NAME":"EARTH","APOAPSIS":"547.990","TIME_SYSTEM":"UTC","EPOCH":"2023-04-22T20:19:08.168448","RA_OF_ASC_NODE":"168.5280","PERIAPSIS":"546.378","OBJECT_ID":"2020-055B","RCS_SIZE":"LARGE","MEAN_MOTION_DDOT":"0.0000000000000","ECCENTRICITY":"0.00011640","DECAY_DATE":null,"INCLINATION":"53.0534","NORAD_CAT_ID":"46028","CLASSIFICATION_TYPE":"U","ARG_OF_PERICENTER":"92.2281","SITE":"AFETR","BSTAR":"0.00083958000000","MEAN_ELEMENT_THEORY":"SGP4","MEAN_ANOMALY":"267.8841"},{"MEAN_MOTION_DDOT":"0.0000000000000","RCS_SIZE":"LARGE","OBJECT_ID":"2020-055C","PERIAPSIS":"546.401","RA_OF_ASC_NODE":"169.7486","EPOCH":"2023-04-22T13:46:24.290400","APOAPSIS":"548.142","TIME_SYSTEM":"UTC","MEAN_ANOMALY":"285.1374","MEAN_ELEMENT_THEORY":"SGP4","SITE":"AFETR","BSTAR":"0.00113450000000","ARG_OF_PERICENTER":"74.9754","CLASSIFICATION_TYPE":"U","INCLINATION":"53.0526","DECAY_DATE":null,"NORAD_CAT_ID":"46029","ECCENTRICITY":"0.00012570","TLE_LINE2":"2 46029  53.0526 169.7486 0001257  74.9754 285.1374 15.06381196150316","GP_ID":"230591913","REF_FRAME":"TEME","REV_AT_EPOCH":"15031","EPHEMERIS_TYPE":"0","COUNTRY_CODE":"US","PERIOD":"95.593","MEAN_MOTION_DOT":"0.00016649","FILE":"3892285","MEAN_MOTION":"15.06381196","CENTER_NAME":"EARTH","LAUNCH_DATE":"2020-08-07","OBJECT_TYPE":"PAYLOAD","ELEMENT_SET_NO":"999","SEMIMAJOR_AXIS":"6925.406","TLE_LINE1":"1 46029U 20055C   23112.57389225  .00016649  00000-0  11345-2 0  9995","OBJECT_NAME":"STARLINK-1526"},{"MEAN_ELEMENT_THEORY":"SGP4","MEAN_ANOMALY":"270.9594","SITE":"AFETR","BSTAR":"0.00133680000000","ARG_OF_PERICENTER":"89.1499","CLASSIFICATION_TYPE":"U","DECAY_DATE":null,"NORAD_CAT_ID":"46030","INCLINATION":"53.0510","ECCENTRICITY":"0.00009070","RCS_SIZE":"LARGE","MEAN_MOTION_DDOT":"0.0000000000000","OBJECT_ID":"2020-055D","EPOCH":"2023-04-22T20:35:03.996096","RA_OF_ASC_NODE":"168.4762","PERIAPSIS":"546.529","TIME_SYSTEM":"UTC","APOAPSIS":"547.785","CENTER_NAME":"EARTH","LAUNCH_DATE":"2020-08-07","OBJECT_TYPE":"PAYLOAD","ELEMENT_SET_NO":"999","TLE_LINE1":"1 46030U 20055D   23112.85768514  .00019696  00000-0  13368-2 0  9992","SEMIMAJOR_AXIS":"6925.292","OBJECT_NAME":"STARLINK-1534","GP_ID":"230590663","TLE_LINE2":"2 46030  53.0510 168.4762 0000907  89.1499 270.9594 15.06418408150312","REF_FRAME":"TEME","REV_AT_EPOCH":"15031","EPHEMERIS_TYPE":"0","MEAN_MOTION_DOT":"0.00019696","PERIOD":"95.591","COUNTRY_CODE":"US","FILE":"3892285","MEAN_MOTION":"15.06418408"},{"ELEMENT_SET_NO":"999","OBJECT_NAME":"STARLINK-1544","SEMIMAJOR_AXIS":"6925.283","TLE_LINE1":"1 46031U 20055E   23112.86043335  .00015653  00000-0  10668-2 0  9990","LAUNCH_DATE":"2020-08-07","CENTER_NAME":"EARTH","OBJECT_TYPE":"PAYLOAD","FILE":"3892285","COUNTRY_CODE":"US","PERIOD":"95.591","MEAN_MOTION_DOT":"0.00015653","MEAN_MOTION":"15.06421536","REF_FRAME":"TEME","GP_ID":"230590913","TLE_LINE2":"2 46031  53.0508 168.4535 0000848  84.5006 275.6079 15.06421536150344","REV_AT_EPOCH":"15034","EPHEMERIS_TYPE":"0","CLASSIFICATION_TYPE":"U","ECCENTRICITY":"0.00008480","NORAD_CAT_ID":"46031","DECAY_DATE":null,"INCLINATION":"53.0508","BSTAR":"0.00106680000000","SITE":"AFETR","MEAN_ANOMALY":"275.6079","MEAN_ELEMENT_THEORY":"SGP4","ARG_OF_PERICENTER":"84.5006","APOAPSIS":"547.735","TIME_SYSTEM":"UTC","OBJECT_ID":"2020-055E","MEAN_MOTION_DDOT":"0.0000000000000","RCS_SIZE":"LARGE","PERIAPSIS":"546.560","EPOCH":"2023-04-22T20:39:01.441440","RA_OF_ASC_NODE":"168.4535"},{"TIME_SYSTEM":"UTC","APOAPSIS":"548.166","RCS_SIZE":"LARGE","MEAN_MOTION_DDOT":"0.0000000000000","OBJECT_ID":"2020-055F","RA_OF_ASC_NODE":"168.3263","EPOCH":"2023-04-22T21:22:49.977408","PERIAPSIS":"546.152","CLASSIFICATION_TYPE":"U","DECAY_DATE":null,"INCLINATION":"53.0505","NORAD_CAT_ID":"46032","ECCENTRICITY":"0.00014540","MEAN_ELEMENT_THEORY":"SGP4","MEAN_ANOMALY":"281.9772","SITE":"AFETR","BSTAR":"0.00152280000000","ARG_OF_PERICENTER":"78.1380","PERIOD":"95.591","MEAN_MOTION_DOT":"0.00022484","COUNTRY_CODE":"US","FILE":"3892285","MEAN_MOTION":"15.06417677","TLE_LINE2":"2 46032  53.0505 168.3263 0001454  78.1380 281.9772 15.06417677150360","GP_ID":"230591663","REF_FRAME":"TEME","REV_AT_EPOCH":"15036","EPHEMERIS_TYPE":"0","ELEMENT_SET_NO":"999","TLE_LINE1":"1 46032U 20055F   23112.89085622  .00022484  00000-0  15228-2 0  9996","SEMIMAJOR_AXIS":"6925.294","OBJECT_NAME":"STARLINK-1555","LAUNCH_DATE":"2020-08-07","CENTER_NAME":"EARTH","OBJECT_TYPE":"PAYLOAD"},{"CLASSIFICATION_TYPE":"U","ECCENTRICITY":"0.00015040","DECAY_DATE":null,"INCLINATION":"53.0525","NORAD_CAT_ID":"46033","SITE":"AFETR","BSTAR":"0.00080427000000","MEAN_ELEMENT_THEORY":"SGP4","MEAN_ANOMALY":"264.0529","ARG_OF_PERICENTER":"96.0631","TIME_SYSTEM":"UTC","APOAPSIS":"548.177","OBJECT_ID":"2020-055G","RCS_SIZE":"LARGE","MEAN_MOTION_DDOT":"0.0000000000000","EPOCH":"2023-04-22T20:56:18.381408","RA_OF_ASC_NODE":"168.4086","PERIAPSIS":"546.094","ELEMENT_SET_NO":"999","OBJECT_NAME":"STARLINK-1556","SEMIMAJOR_AXIS":"6925.271","TLE_LINE1":"1 46033U 20055G   23112.87243497  .00011726  00000-0  80427-3 0  9992","LAUNCH_DATE":"2020-08-07","CENTER_NAME":"EARTH","OBJECT_TYPE":"PAYLOAD","FILE":"3892285","PERIOD":"95.591","MEAN_MOTION_DOT":"0.00011726","COUNTRY_CODE":"US","MEAN_MOTION":"15.06425421","REF_FRAME":"TEME","TLE_LINE2":"2 46033  53.0525 168.4086 0001504  96.0631 264.0529 15.06425421150336","GP_ID":"230592413","EPHEMERIS_TYPE":"0","REV_AT_EPOCH":"15033"},{"ARG_OF_PERICENTER":"90.1633","MEAN_ELEMENT_THEORY":"SGP4","MEAN_ANOMALY":"269.9465","BSTAR":"0.00084472000000","SITE":"AFETR","DECAY_DATE":null,"NORAD_CAT_ID":"46034","INCLINATION":"53.0510","ECCENTRICITY":"0.00009470","CLASSIFICATION_TYPE":"U","RA_OF_ASC_NODE":"170.1791","EPOCH":"2023-04-22T11:28:22.044288","PERIAPSIS":"546.561","RCS_SIZE":"LARGE","MEAN_MOTION_DDOT":"0.0000000000000","OBJECT_ID":"2020-055H","APOAPSIS":"547.872","TIME_SYSTEM":"UTC","OBJECT_TYPE":"PAYLOAD","CENTER_NAME":"EARTH","LAUNCH_DATE":"2020-08-07","TLE_LINE1":"1 46034U 20055H   23112.47803292  .00012323  00000-0  84472-3 0  9992","SEMIMAJOR_AXIS":"6925.351","OBJECT_NAME":"STARLINK-1557","ELEMENT_SET_NO":"999","REV_AT_EPOCH":"15027","EPHEMERIS_TYPE":"0","GP_ID":"230591163","TLE_LINE2":"2 46034  53.0510 170.1791 0000947  90.1633 269.9465 15.06399092150271","REF_FRAME":"TEME","MEAN_MOTION":"15.06399092","PERIOD":"95.592","MEAN_MOTION_DOT":"0.00012323","COUNTRY_CODE":"US","FILE":"3892285"},{"ECCENTRICITY":"0.00012820","DECAY_DATE":null,"INCLINATION":"53.0518","NORAD_CAT_ID":"46035","CLASSIFICATION_TYPE":"U","ARG_OF_PERICENTER":"97.8236","SITE":"AFETR","BSTAR":"0.00146120000000","MEAN_ANOMALY":"262.2898","MEAN_ELEMENT_THEORY":"SGP4","TIME_SYSTEM":"UTC","APOAPSIS":"548.084","PERIAPSIS":"546.308","RA_OF_ASC_NODE":"169.8495","EPOCH":"2023-04-22T13:14:31.520544","OBJECT_ID":"2020-055J","MEAN_MOTION_DDOT":"0.0000000000000","RCS_SIZE":"LARGE","OBJECT_NAME":"STARLINK-1558","TLE_LINE1":"1 46035U 20055J   23112.55175371  .00021553  00000-0  14612-2 0  9995","SEMIMAJOR_AXIS":"6925.331","ELEMENT_SET_NO":"999","OBJECT_TYPE":"PAYLOAD","LAUNCH_DATE":"2020-08-07","CENTER_NAME":"EARTH","MEAN_MOTION":"15.06405781","FILE":"3892071","COUNTRY_CODE":"US","PERIOD":"95.592","MEAN_MOTION_DOT":"0.00021553","REV_AT_EPOCH":"15031","EPHEMERIS_TYPE":"0","REF_FRAME":"TEME","GP_ID":"230559500","TLE_LINE2":"2 46035  53.0518 169.8495 0001282  97.8236 262.2898 15.06405781150316"},{"APOAPSIS":"548.017","TIME_SYSTEM":"UTC","OBJECT_ID":"2020-055K","MEAN_MOTION_DDOT":"0.0000000000000","RCS_SIZE":"LARGE","PERIAPSIS":"546.381","RA_OF_ASC_NODE":"169.9104","EPOCH":"2023-04-22T12:53:17.458368","CLASSIFICATION_TYPE":"U","ECCENTRICITY":"0.00011810","DECAY_DATE":null,"INCLINATION":"53.0526","NORAD_CAT_ID":"46036","SITE":"AFETR","BSTAR":"0.00046957000000","MEAN_ANOMALY":"282.2429","MEAN_ELEMENT_THEORY":"SGP4","ARG_OF_PERICENTER":"77.8692","FILE":"3892071","COUNTRY_CODE":"US","PERIOD":"95.592","MEAN_MOTION_DOT":"0.00006721","MEAN_MOTION":"15.06404674","REF_FRAME":"TEME","GP_ID":"230559250","TLE_LINE2":"2 46036  53.0526 169.9104 0001181  77.8692 282.2429 15.06404674150318","REV_AT_EPOCH":"15031","EPHEMERIS_TYPE":"0","ELEMENT_SET_NO":"999","OBJECT_NAME":"STARLINK-1560","TLE_LINE1":"1 46036U 20055K   23112.53700762  .00006721  00000-0  46957-3 0  9990","SEMIMAJOR_AXIS":"6925.334","LAUNCH_DATE":"2020-08-07","CENTER_NAME":"EARTH","OBJECT_TYPE":"PAYLOAD"},{"OBJECT_ID":"2020-055L","RCS_SIZE":"LARGE","MEAN_MOTION_DDOT":"0.0000000000000","EPOCH":"2023-04-22T12:47:58.259616","RA_OF_ASC_NODE":"169.9323","PERIAPSIS":"546.512","TIME_SYSTEM":"UTC","APOAPSIS":"547.855","SITE":"AFETR","BSTAR":"0.00033094000000","MEAN_ELEMENT_THEORY":"SGP4","MEAN_ANOMALY":"278.9790","ARG_OF_PERICENTER":"81.1308","CLASSIFICATION_TYPE":"U","ECCENTRICITY":"0.00009690","DECAY_DATE":null,"NORAD_CAT_ID":"46037","INCLINATION":"53.0515","REF_FRAME":"TEME","TLE_LINE2":"2 46037  53.0515 169.9323 0000969  81.1308 278.9790 15.06409820150305","GP_ID":"230560500","REV_AT_EPOCH":"15030","EPHEMERIS_TYPE":"0","FILE":"3892071","MEAN_MOTION_DOT":"0.00004653","PERIOD":"95.592","COUNTRY_CODE":"US","MEAN_MOTION":"15.06409820","CENTER_NAME":"EARTH","LAUNCH_DATE":"2020-08-07","OBJECT_TYPE":"PAYLOAD","ELEMENT_SET_NO":"999","OBJECT_NAME":"STARLINK-1565","TLE_LINE1":"1 46037U 20055L   23112.53331319  .00004653  00000-0  33094-3 0  9999","SEMIMAJOR_AXIS":"6925.318"}];
